{"type": "FeatureCollection", "features": [ {"type": "Feature", "properties": {"norad_id": 58662, "name": "TIANMU-1 21", "group": "weather", "lat": 76.17575226346898, "lon": -57.75790808624786, "alt_km": 468.8740814822577, "timestamp": "2025-12-02T19:35:50.205746+00:00", "meta": {"OBJECT_NAME": "TIANMU-1 21", "OBJECT_ID": "2023-208C", "EPOCH": "2025-12-02T11:18:45.961920", "MEAN_MOTION": 15.31203643, "ECCENTRICITY": 0.0006008, "INCLINATION": 97.4374, "RA_OF_ASC_NODE": 89.8315, "ARG_OF_PERICENTER": 302.8783, "MEAN_ANOMALY": 57.1879, "EPHEMERIS_TYPE": 0, "CLASSIFICATION_TYPE": "U", "NORAD_CAT_ID": 58662, "ELEMENT_SET_NO": 999, "REV_AT_EPOCH": 10742, "BSTAR": 0.00046947, "MEAN_MOTION_DOT": 0.0001409, "MEAN_MOTION_DDOT": 0}, "tle": {"line1": "1 58662U 23208C   25336.47136530  .00014090  00000+0  46947-3 0  9996", "line2": "2 58662  97.4374  89.8315 0006008 302.8783  57.1879 15.31203643107421"}}, "geometry": {"type": "Point", "coordinates": [-57.75790808624786, 76.17575226346898]}}, {"type": "Feature", "properties": {"norad_id": 58663, "name": "TIANMU-1 22", "group": "weather", "lat": 16.2614738369861, "lon": -89.87714926187695, "alt_km": 486.6567255236687, "timestamp": "2025-12-02T19:35:50.205756+00:00", "meta": {"OBJECT_NAME": "TIANMU-1 22", "OBJECT_ID": "2023-208D", "EPOCH": "2025-12-02T11:01:18.430176", "MEAN_MOTION": 15.27326115, "ECCENTRICITY": 0.0003135, "INCLINATION": 97.4383, "RA_OF_ASC_NODE": 87.5826, "ARG_OF_PERICENTER": 334.5548, "MEAN_ANOMALY": 25.5536, "EPHEMERIS_TYPE": 0, "CLASSIFICATION_TYPE": "U", "NORAD_CAT_ID": 58663, "ELEMENT_SET_NO": 999, "REV_AT_EPOCH": 10726, "BSTAR": 0.00043053, "MEAN_MOTION_DOT": 0.00011456, "MEAN_MOTION_DDOT": 0}, "tle": {"line1": "1 58663U 23208D   25336.45924109  .00011456  00000+0  43053-3 0  9990", "line2": "2 58663  97.4383  87.5826 0003135 334.5548  25.5536 15.27326115107269"}}, "geometry": {"type": "Point", "coordinates": [-89.87714926187695, 16.2614738369861]}}, {"type": "Feature", "properties": {"norad_id": 58700, "name": "TIANMU-1 15", "group": "weather", "lat": 35.81590163337385, "lon": 152.8940393260437, "alt_km": 487.88060291851343, "timestamp": "2025-12-02T19:35:50.205768+00:00", "meta": {"OBJECT_NAME": "TIANMU-1 15", "OBJECT_ID": "2024-004A", "EPOCH": "2025-12-02T13:08:16.615392", "MEAN_MOTION": 15.24462539, "ECCENTRICITY": 0.0005848, "INCLINATION": 97.4627, "RA_OF_ASC_NODE": 158.054, "ARG_OF_PERICENTER": 339.1335, "MEAN_ANOMALY": 20.9663, "EPHEMERIS_TYPE": 0, "CLASSIFICATION_TYPE": "U", "NORAD_CAT_ID": 58700, "ELEMENT_SET_NO": 999, "REV_AT_EPOCH": 10579, "BSTAR": 0.00035566, "MEAN_MOTION_DOT": 8.668e-05, "MEAN_MOTION_DDOT": 0}, "tle": {"line1": "1 58700U 24004A   25336.54741453  .00008668  00000+0  35566-3 0  9997", "line2": "2 58700  97.4627 158.0540 0005848 339.1335  20.9663 15.24462539105791"}}, "geometry": {"type": "Point", "coordinates": [152.8940393260437, 35.81590163337385]}}, {"type": "Feature", "properties": {"norad_id": 58701, "name": "TIANMU-1 16", "group": "weather", "lat": 52.877543444980006, "lon": -12.313982909114799, "alt_km": 491.6279653160673, "timestamp": "2025-12-02T19:35:50.205779+00:00", "meta": {"OBJECT_NAME": "TIANMU-1 16", "OBJECT_ID": "2024-004B", "EPOCH": "2025-11-28T17:21:14.562144", "MEAN_MOTION": 15.24146454, "ECCENTRICITY": 0.00054689, "INCLINATION": 97.457, "RA_OF_ASC_NODE": 153.6495, "ARG_OF_PERICENTER": 351.9748, "MEAN_ANOMALY": 8.1401, "EPHEMERIS_TYPE": 0, "CLASSIFICATION_TYPE": "U", "NORAD_CAT_ID": 58701, "ELEMENT_SET_NO": 999, "REV_AT_EPOCH": 10521, "BSTAR": 5.4123761e-05, "MEAN_MOTION_DOT": 1.245e-05, "MEAN_MOTION_DDOT": 0}, "tle": {"line1": "1 58701U 24004B   25332.72308521  .00001245  00000+0  54124-4 0  9995", "line2": "2 58701  97.4570 153.6495 0005468 351.9748   8.1401 15.24146454105217"}}, "geometry": {"type": "Point", "coordinates": [-12.313982909114799, 52.877543444980006]}}, {"type": "Feature", "properties": {"norad_id": 58702, "name": "TIANMU-1 17", "group": "weather", "lat": -29.55409420184581, "lon": -26.133759926703835, "alt_km": 500.99703218205195, "timestamp": "2025-12-02T19:35:50.205790+00:00", "meta": {"OBJECT_NAME": "TIANMU-1 17", "OBJECT_ID": "2024-004C", "EPOCH": "2025-12-02T12:22:39.323424", "MEAN_MOTION": 15.24260266, "ECCENTRICITY": 0.0004394, "INCLINATION": 97.46, "RA_OF_ASC_NODE": 157.8278, "ARG_OF_PERICENTER": 342.2364, "MEAN_ANOMALY": 17.8719, "EPHEMERIS_TYPE": 0, "CLASSIFICATION_TYPE": "U", "NORAD_CAT_ID": 58702, "ELEMENT_SET_NO": 999, "REV_AT_EPOCH": 10578, "BSTAR": 0.00037108, "MEAN_MOTION_DOT": 8.991e-05, "MEAN_MOTION_DDOT": 0}, "tle": {"line1": "1 58702U 24004C   25336.51573291  .00008991  00000+0  37108-3 0  9992", "line2": "2 58702  97.4600 157.8278 0004394 342.2364  17.8719 15.24260266105780"}}, "geometry": {"type": "Point", "coordinates": [-26.133759926703835, -29.55409420184581]}}, {"type": "Feature", "properties": {"norad_id": 58703, "name": "TIANMU-1 18", "group": "weather", "lat": -57.67900253610553, "lon": 170.27616761877326, "alt_km": 498.2051718426537, "timestamp": "2025-12-02T19:35:50.205803+00:00", "meta": {"OBJECT_NAME": "TIANMU-1 18", "OBJECT_ID": "2024-004D", "EPOCH": "2025-12-02T11:58:31.637856", "MEAN_MOTION": 15.24252986, "ECCENTRICITY": 0.0003756, "INCLINATION": 97.4618, "RA_OF_ASC_NODE": 158.0042, "ARG_OF_PERICENTER": 343.9524, "MEAN_ANOMALY": 16.1593, "EPHEMERIS_TYPE": 0, "CLASSIFICATION_TYPE": "U", "NORAD_CAT_ID": 58703, "ELEMENT_SET_NO": 999, "REV_AT_EPOCH": 10578, "BSTAR": 0.00034227, "MEAN_MOTION_DOT": 8.284e-05, "MEAN_MOTION_DDOT": 0}, "tle": {"line1": "1 58703U 24004D   25336.49897729  .00008284  00000+0  34227-3 0  9999", "line2": "2 58703  97.4618 158.0042 0003756 343.9524  16.1593 15.24252986105781"}}, "geometry": {"type": "Point", "coordinates": [170.27616761877326, -57.67900253610553]}}, {"type": "Feature", "properties": {"norad_id": 58990, "name": "INSAT-3DS", "group": "weather", "lat": 0.009459556265341902, "lon": 87.95468653734045, "alt_km": 35793.14302082668, "timestamp": "2025-12-02T19:35:50.205815+00:00", "meta": {"OBJECT_NAME": "INSAT-3DS", "OBJECT_ID": "2024-033A", "EPOCH": "2025-12-02T02:11:22.197696", "MEAN_MOTION": 1.00269802, "ECCENTRICITY": 0.00015795, "INCLINATION": 0.0134, "RA_OF_ASC_NODE": 265.382, "ARG_OF_PERICENTER": 348.0562, "MEAN_ANOMALY": 292.7221, "EPHEMERIS_TYPE": 0, "CLASSIFICATION_TYPE": "U", "NORAD_CAT_ID": 58990, "ELEMENT_SET_NO": 999, "REV_AT_EPOCH": 4509, "BSTAR": 0, "MEAN_MOTION_DOT": -1.35e-06, "MEAN_MOTION_DDOT": 0}, "tle": {"line1": "1 58990U 24033A   25336.09122914 -.00000135  00000+0  00000+0 0  9998", "line2": "2 58990   0.0134 265.3820 0001579 348.0562 292.7221  1.00269802 45098"}}, "geometry": {"type": "Point", "coordinates": [87.95468653734045, 0.009459556265341902]}}, {"type": "Feature", "properties": {"norad_id": 59051, "name": "METEOR-M2 4", "group": "weather", "lat": 26.758173512101745, "lon": 118.29679372719305, "alt_km": 819.4486738991636, "timestamp": "2025-12-02T19:35:50.205826+00:00", "meta": {"OBJECT_NAME": "METEOR-M2 4", "OBJECT_ID": "2024-039A", "EPOCH": "2025-12-02T12:07:43.554144", "MEAN_MOTION": 14.22398697, "ECCENTRICITY": 0.0007583, "INCLINATION": 98.6751, "RA_OF_ASC_NODE": 293.5755, "ARG_OF_PERICENTER": 26.92, "MEAN_ANOMALY": 333.237, "EPHEMERIS_TYPE": 0, "CLASSIFICATION_TYPE": "U", "NORAD_CAT_ID": 59051, "ELEMENT_SET_NO": 999, "REV_AT_EPOCH": 9130, "BSTAR": 4.7166e-05, "MEAN_MOTION_DOT": 6.1e-07, "MEAN_MOTION_DDOT": 0}, "tle": {"line1": "1 59051U 24039A   25336.50536521  .00000061  00000+0  47166-4 0  9998", "line2": "2 59051  98.6751 293.5755 0007583  26.9200 333.2370 14.22398697 91301"}}, "geometry": {"type": "Point", "coordinates": [118.29679372719305, 26.758173512101745]}}, {"type": "Feature", "properties": {"norad_id": 60133, "name": "GOES 19", "group": "weather", "lat": 0.0021564747301555335, "lon": -69.33240960420844, "alt_km": 35781.13239822782, "timestamp": "2025-12-02T19:35:50.205838+00:00", "meta": {"OBJECT_NAME": "GOES 19", "OBJECT_ID": "2024-119A", "EPOCH": "2025-12-02T08:17:26.600064", "MEAN_MOTION": 1.00271318, "ECCENTRICITY": 0.0001224, "INCLINATION": 0.0186, "RA_OF_ASC_NODE": 142.0947, "ARG_OF_PERICENTER": 154.9302, "MEAN_ANOMALY": 183.6098, "EPHEMERIS_TYPE": 0, "CLASSIFICATION_TYPE": "U", "NORAD_CAT_ID": 60133, "ELEMENT_SET_NO": 999, "REV_AT_EPOCH": 499, "BSTAR": 0, "MEAN_MOTION_DOT": -2.28e-06, "MEAN_MOTION_DDOT": 0}, "tle": {"line1": "1 60133U 24119A   25336.34544676 -.00000228  00000+0  00000+0 0  9999", "line2": "2 60133   0.0186 142.0947 0001224 154.9302 183.6098  1.00271318  4990"}}, "geometry": {"type": "Point", "coordinates": [-69.33240960420844, 0.0021564747301555335]}}, {"type": "Feature", "properties": {"norad_id": 65815, "name": "FENGYUN 3H", "group": "weather", "lat": 58.101227033154615, "lon": 110.79113614303797, "alt_km": 819.7722532887219, "timestamp": "2025-12-02T19:35:50.205849+00:00", "meta": {"OBJECT_NAME": "FENGYUN 3H", "OBJECT_ID": "2025-219A", "EPOCH": "2025-12-02T10:34:28.159680", "MEAN_MOTION": 14.19899905, "ECCENTRICITY": 6.5e-05, "INCLINATION": 98.6568, "RA_OF_ASC_NODE": 276.2554, "ARG_OF_PERICENTER": 69.1067, "MEAN_ANOMALY": 291.018, "EPHEMERIS_TYPE": 0, "CLASSIFICATION_TYPE": "U", "NORAD_CAT_ID": 65815, "ELEMENT_SET_NO": 999, "REV_AT_EPOCH": 946, "BSTAR": 8.6054e-05, "MEAN_MOTION_DOT": 1.39e-06, "MEAN_MOTION_DDOT": 0}, "tle": {"line1": "1 65815U 25219A   25336.44060370  .00000139  00000+0  86054-4 0  9996", "line2": "2 65815  98.6568 276.2554 0000650  69.1067 291.0180 14.19899905  9465"}}, "geometry": {"type": "Point", "coordinates": [110.79113614303797, 58.101227033154615]}}]}